[{"OBJECT_NAME":"STARLINK-5281","OBJECT_ID":"2022-141AK","EPOCH":"2026-03-09T22:30:24.777792","MEAN_MOTION":15.08858609,"ECCENTRICITY":0.00013376,"INCLINATION":53.2174,"RA_OF_ASC_NODE":353.1276,"ARG_OF_PERICENTER":83.2295,"MEAN_ANOMALY":276.8849,"EPHEMERIS_TYPE":0,"CLASSIFICATION_TYPE":"U","NORAD_CAT_ID":54190,"ELEMENT_SET_NO":999,"REV_AT_EPOCH":18603,"BSTAR":5.9025105e-5,"MEAN_MOTION_DOT":6.52e-6,"MEAN_MOTION_DDOT":0},{"OBJECT_NAME":"CZ-6A DEB","OBJECT_ID":"2022-151LV","EPOCH":"2026-03-09T17:28:26.716800","MEAN_MOTION":14.98158937,"ECCENTRICITY":0.00445354,"INCLINATION":98.6404,"RA_OF_ASC_NODE":145.743,"ARG_OF_PERICENTER":190.094,"MEAN_ANOMALY":169.939,"EPHEMERIS_TYPE":0,"CLASSIFICATION_TYPE":"U","NORAD_CAT_ID":54569,"ELEMENT_SET_NO":999,"REV_AT_EPOCH":17656,"BSTAR":0.0053350459,"MEAN_MOTION_DOT":0.00065033,"MEAN_MOTION_DDOT":0}]
